C/2020 PV6 (PANSTARRS),e,128.2388,329.1453,71.3913,41.90797,0.0036329,0.94522029,0.9226,06/07.0/2022,2000,g 10.0,4.0
# From MPEC 2021-N06
C/2020 Q1 (Borisov),e,142.9218,52.4072,9.9031,58.56695,0.0021990,0.97753875,0.0000,08/14.5092/2020,2000,g 14.0,4.0
# From MPEC 2022-C56
C/2020 R2 (PANSTARRS),e,53.2284,195.0935,211.7511,405.4048,0.0001207,0.98842657,0.0000,02/24.6115/2022,2000,g  9.0,4.0
# From MPEC 2022-K19
C/2020 R4 (ATLAS),e,164.4617,323.2744,46.7210,99.30651,0.0009959,0.98964303,0.0000,03/01.9957/2021,2000,g 13.5,4.0
# From MPEC 2020-W26
P/2020 R5 (PANSTARRS),e,11.4502,272.9772,82.4897,4.984166,0.0885759,0.31472666,65.4474,06/07.0/2022,2000,g  9.5,6.0
# From MPEC 2021-Y10
C/2020 R6 (Rankin),e,82.8109,12.1775,271.9983,342.2592,0.0001557,0.99084951,0.0000,09/09.3337/2019,2000,g 11.0,4.0
# From MPEC 2022-K19
C/2020 R7 (ATLAS),h,09/16.2256/2022,114.8905,268.2820,347.8351,1.000064,2.955925,2000,7.0,3.2
# From MPEC 2021-BE3
P/2020 S1 (PANSTARRS),e,13.7328,129.4622,254.9467,5.987367,0.0672745,0.50760754,34.0235,06/07.0/2022,2000,g 14.0,4.0
# From MPEC 2021-BE3
C/2020 S2 (PANSTARRS),e,22.4014,197.6677,202.3045,10.20462,0.0302349,0.82790604,16.0837,06/07.0/2022,2000,g 17.0,4.0
# From MPEC 2022-C56
C/2020 S3 (Erasmus),e,19.9733,222.6913,350.0459,168.1426,0.0004521,0.99764268,0.0000,12/12.5723/2020,2000,g 13.5,3.2
# From MPEC 2022-H04
C/2020 S4 (PANSTARRS),h,02/09.2926/2023,20.5724,117.7222,21.0005,1.000668,3.369605,2000,8.5,3.2
# From MPEC 2021-BE3
P/2020 S5 (PANSTARRS),e,12.3523,316.0024,53.1301,4.052171,0.1208293,0.33862294,80.6113,06/07.0/2022,2000,g 14.5,4.0
# From MPEC 2021-P47
P/2020 S6 (Leonard),e,15.4608,242.5459,176.6715,3.600048,0.1442918,0.47940740,80.8453,06/07.0/2022,2000,g 16.0,4.0
# From MPEC 2021-BE3
P/2020 S7 (PANSTARRS),e,16.0915,328.0211,40.4995,5.027080,0.0874441,0.41073338,49.4513,06/07.0/2022,2000,g 14.5,4.0
# From MPEC 2021-P47
C/2020 S8 (Lemmon),e,108.5262,24.0604,160.3226,273.7129,0.0002177,0.99136541,0.0000,04/10.9052/2021,2000,g 12.5,4.0
# From MPEC 2022-K19
C/2020 T2 (Palomar),e,27.8633,83.0247,150.4444,325.1887,0.0001681,0.99367885,0.0000,07/11.2128/2021,2000,g 11.0,3.2
# From MPEC 2021-N06
P/2020 T3 (PANSTARRS),e,7.2963,74.0020,357.0343,3.517247,0.1494169,0.59178385,75.0784,06/07.0/2022,2000,g 18.0,3.2
# From MPEC 2021-N06
C/2020 T4 (PANSTARRS),h,07/05.2605/2021,83.8212,50.6148,79.6103,1.000076,2.191889,2000,13.0,3.2
# From MPEC 2021-BE3
C/2020 T5 (Lemmon),e,66.5816,237.8560,90.3131,812.7666,0.0000425,0.99767488,0.0000,10/09.5741/2020,2000,g 16.0,4.0
# From MPEC 2021-N06
P/2020 U2 (PANSTARRS),e,6.4210,342.8986,84.6334,3.778000,0.1342181,0.51082901,70.8979,06/07.0/2022,2000,g 18.0,4.0
# From MPEC 2021-W31
C/2020 U3 (Rankin),e,30.1687,282.6718,124.2862,65.81030,0.0018461,0.96541160,0.8971,06/07.0/2022,2000,g 15.0,4.0
# From MPEC 2022-K19
C/2020 U4 (PANSTARRS),h,04/08.0564/2022,167.0359,120.0138,69.5421,1.001303,5.353700,2000,7.0,4.0
# From MPEC 2022-K19
C/2020 U5 (PANSTARRS),e,97.2699,107.3350,75.4195,4861,0.0000029,0.99922726,0.0000,04/27.9017/2022,2000,g  8.0,4.0
# From MPEC 2022-K19
C/2020 V2 (ZTF),h,05/08.5203/2023,131.6107,212.3678,162.4121,1.001076,2.228126,2000,4.9,4.0
# From MPEC 2021-N06
P/2020 V3 (PANSTARRS),e,23.0319,198.2568,249.3436,8.374798,0.0406670,0.25608790,19.6504,06/07.0/2022,2000,g  8.3,4.0
# From MPEC 2022-K19
P/2020 V4 (Rankin),e,14.2432,203.4904,256.9944,9.355135,0.0344452,0.44966776,11.1678,06/07.0/2022,2000,g  9.0,4.0
# From MPEC 2021-BE3
P/2020 W1 (Rankin),e,10.7905,124.2659,264.9635,7.207139,0.0509401,0.26606617,40.3170,06/07.0/2022,2000,g 10.0,4.0
# From MPEC 2021-BE3
C/2020 W5 (Lemmon),h,11/30.0573/2020,88.5848,75.4934,24.4803,1.000668,3.364378,2000,15.0,4.0
# From MPEC 2022-K19
P/2020 WJ5 (Lemmon),e,22.2943,177.8108,338.3196,6.017023,0.0667777,0.17125024,22.6824,06/07.0/2022,2000,g  8.5,4.0
# From MPEC 2021-P47
P/2020 X1 (ATLAS),e,31.6932,56.0101,323.3267,4.528221,0.1022852,0.36555297,70.2102,06/07.0/2022,2000,g 13.0,4.0
# From MPEC 2021-U31
C/2020 X2 (ATLAS),e,18.1874,105.4468,347.3402,16.42018,0.0148128,0.76689374,8.4162,06/07.0/2022,2000,g 10.6,4.0
# From MPEC 2021-S45
C/2020 X4 (Leonard),e,80.6171,161.8861,140.3033,41.34058,0.0037080,0.87373611,2.1041,06/07.0/2022,2000,g  9.0,4.0
# From MPEC 2022-K19
C/2020 Y2 (ATLAS),e,101.2978,26.5141,266.1027,1102,0.0000269,0.99715766,0.0000,06/17.6877/2022,2000,g  6.5,4.0
# From MPEC 2021-R75
C/2020 Y3 (ATLAS),e,83.1012,191.4391,342.0090,146.6811,0.0005548,0.98637573,0.0000,12/03.4095/2020,2000,g 13.5,4.0
# From MPEC 2022-H04
C/2021 A1 (Leonard),e,132.6860,255.8968,225.0916,30715,0.0000002,0.99997997,0.0000,01/03.2955/2022,2000,g  8.5,4.0
# From MPEC 2022-F14
C/2021 A2 (NEOWISE),e,106.9780,125.2297,338.8164,243.7231,0.0002590,0.99420466,0.0000,01/22.5708/2021,2000,g 13.5,4.0
# From MPEC 2022-ED3
C/2021 A4 (NEOWISE),e,111.5389,307.1098,204.7053,42.79811,0.0035202,0.97320854,0.0000,03/19.9569/2021,2000,g 16.0,4.0
# From MPEC 2021-BE3
P/2021 A5 (PANSTARRS),e,18.1872,328.7681,61.2299,3.047265,0.1852844,0.13985572,105.9677,06/07.0/2022,2000,g 15.0,4.0
# From MPEC 2022-K19
C/2021 A6 (PANSTARRS),e,75.6124,164.0794,351.6803,10289,0.0000009,0.99922948,0.0000,05/03.9435/2021,2000,g  7.0,4.0
# From MPEC 2022-GA9
C/2021 A7 (NEOWISE),e,78.1498,154.5177,356.0425,4002,0.0000039,0.99950846,0.0000,07/15.2778/2021,2000,g 10.0,4.0
# From MPEC 2022-K19
C/2021 A9 (PANSTARRS),h,12/01.3433/2023,158.0247,314.8433,211.4533,1.003517,7.760139,2000,6.0,4.0
# From MPEC 2021-N06
C/2021 A10 (NEOWISE),e,151.8855,188.6320,82.4614,94.68921,0.0010697,0.98663345,0.0000,03/15.4168/2021,2000,g 19.0,4.0
# From MPEC 2022-ED3
C/2021 B2 (PANSTARRS),e,38.0897,120.5498,334.9641,350.9438,0.0001499,0.99284038,0.0000,05/04.2688/2021,2000,g 14.0,4.0
# From MPEC 2021-N06
C/2021 B3 (NEOWISE),e,119.4818,67.2858,293.5513,34.78009,0.0048052,0.93788839,2.1775,06/07.0/2022,2000,g 13.5,4.0
# From MPEC 2022-ED3
C/2021 C1 (Rankin),e,143.0451,186.8984,336.2914,109534,0.0000000,0.99996823,0.0000,12/07.0867/2020,2000,g 11.5,4.0
# From MPEC 2021-U31
P/2021 C2 (PANSTARRS),e,21.9296,66.4743,78.7647,9.534913,0.0334756,0.48721756,15.6691,06/07.0/2022,2000,g 12.0,4.0
# From MPEC 2021-N06
C/2021 C3 (Catalina),e,122.1643,181.9276,357.1226,62.82974,0.0019790,0.96378020,0.9492,06/07.0/2022,2000,g 14.0,4.0
# From MPEC 2022-H30
C/2021 C4 (ATLAS),e,132.8518,194.2766,320.2300,43287,0.0000001,0.99989595,0.0000,01/17.1169/2021,2000,g  9.0,4.0
# From MPEC 2022-K19
C/2021 C5 (PANSTARRS),e,50.7838,323.6892,270.9193,3610,0.0000045,0.99910200,0.0000,02/11.0646/2023,2000,g  9.0,4.0
# From MPEC 2022-F14
C/2021 C6 (Lemmon),h,11/13.2852/2021,164.6258,332.1556,203.5545,1.001458,3.271141,2000,12.0,4.0
# From MPEC 2022-F14
C/2021 D1 (SWAN),e,31.4529,311.2662,72.2392,98.54847,0.0010075,0.99084897,0.0000,02/27.6604/2021,2000,g 13.0,4.0
# From MPEC 2022-K19
C/2021 D2 (ZTF),h,02/03.9821/2022,83.8291,305.6799,125.0292,1.001595,2.946301,2000,9.0,4.0
# From MPEC 2021-N06
A/2021 E2,e,167.4883,190.8216,342.4441,234.2780,0.0002749,0.99023742,0.0000,12/10.4659/2020,2000,g 15.0,2.0
# From MPEC 2022-K19
C/2021 E3 (ZTF),h,06/11.9098/2022,112.5547,104.4683,228.8495,1.000884,1.777380,2000,8.5,4.0
# From MPEC 2022-GA9
A/2021 E4,e,116.3616,171.1743,48.2744,671.0628,0.0000567,0.99303197,0.0000,04/25.3004/2022,2000,g 13.5,2.0
# From MPEC 2022-H30
C/2021 F1 (Lemmon-PANSTARRS),e,107.3251,203.4516,146.8224,237.6105,0.0002691,0.99581049,0.0000,04/06.8733/2022,2000,g 13.5,4.0
# From MPEC 2021-J72
C/2021 G1 (Leonard),e,131.5598,270.6991,107.4715,74.98371,0.0015179,0.95434433,0.4855,06/07.0/2022,2000,g 14.0,4.0
# From MPEC 2022-J42
C/2021 G2 (ATLAS),e,48.4725,221.1116,343.3650,3883,0.0000041,0.99871771,0.0000,09/10.0123/2024,2000,g  5.5,4.0
# From MPEC 2022-ED3
C/2021 G3 (PANSTARRS),h,10/18.6194/2021,102.8906,147.4214,10.6507,1.001608,5.181545,2000,10.5,4.0
# From MPEC 2021-Y10
P/2021 HS (PANSTARRS),e,12.1699,262.3906,46.0904,4.194403,0.1147358,0.81007688,34.9519,06/07.0/2022,2000,g 22.0,4.0
# From MPEC 2022-C56
C/2021 J1 (Maury-Attard),e,92.7200,88.3284,147.3336,26.43587,0.0072513,0.93414372,3.4266,06/07.0/2022,2000,g 15.5,4.0
# From MPEC 2022-K19
C/2021 J2 (PANSTARRS),e,156.2109,23.3309,172.0557,117.8322,0.0007706,0.96005813,0.1985,06/07.0/2022,2000,g 12.0,4.0
# From MPEC 2021-S45
P/2021 J3 (ATLAS),e,14.5429,111.1900,126.0354,8.942300,0.0368579,0.44998525,39.3561,06/07.0/2022,2000,g  7.0,4.0
# From MPEC 2022-ED3
C/2021 K1 (ATLAS),e,16.2758,140.9021,184.2795,12.69439,0.0217915,0.80324628,8.6853,06/07.0/2022,2000,g 11.0,4.0
# From MPEC 2022-GA9
C/2021 K2 (MASTER),h,09/09.3879/2021,100.8451,282.2455,343.3491,1.001094,5.467395,2000,8.0,4.0
# From MPEC 2022-K19
C/2021 K3 (Catalina),h,02/02.9210/2022,134.7739,114.4519,182.0230,1.002844,5.229599,2000,10.0,4.0
# From MPEC 2021-W31
P/2021 L2 (Leonard),e,21.0700,266.6569,51.5161,4.050151,0.1209197,0.52141776,38.3997,06/07.0/2022,2000,g 17.0,4.0
# From MPEC 2022-K19
C/2021 L3 (Borisov),h,02/13.5743/2022,78.5801,344.9685,91.5892,1.001844,8.457848,2000,6.0,4.0
# From MPEC 2021-R75
P/2021 L4 (PANSTARRS),e,16.9607,243.2220,234.5423,3.165229,0.1750235,0.11844367,176.3634,06/07.0/2022,2000,g 13.5,4.0
# From MPEC 2021-P47
P/2021 N1 (ZTF),e,11.5046,301.1672,21.2033,2.977415,0.1918426,0.67670505,70.1108,06/07.0/2022,2000,g 19.0,4.0
# From MPEC 2022-GA9
P/2021 N2 (Fuls),e,13.0625,221.7418,177.3665,6.933344,0.0539871,0.45239799,11.0982,06/07.0/2022,2000,g  9.5,4.0
# From MPEC 2021-W31
C/2021 N3 (PANSTARRS),e,26.7445,337.4951,304.7088,159.6019,0.0004888,0.96421032,0.3208,06/07.0/2022,2000,g  8.5,4.0
# From MPEC 2022-A21
C/2021 O1 (Nishimura),e,27.5784,41.6086,74.4429,2531,0.0000077,0.99968922,0.0000,08/13.9315/2021,2000,g 10.5,4.0
# From MPEC 2022-K19
C/2021 O3 (PANSTARRS),h,04/21.0463/2022,56.7941,189.0183,299.9885,1.000107,0.287345,2000,10.5,4.0
# From MPEC 2022-CN4
C/2021 P1 (PANSTARRS),e,51.6364,359.6761,40.4265,3280,0.0000052,0.99866656,0.0000,06/02.1617/2022,2000,g 11.0,4.0
# From MPEC 2022-C56
